STARLINK-2509
1 28318C 21036AU  21325.14496573  .00001690  00000-0  11325-3 0  3252
2 28318  53.0527 307.5705 0001719  51.8897 243.5156 15.06383778    16
